NORAD_CAT_ID,OBJECT_NAME,OBJECT_TYPE,EPOCH,MEAN_MOTION,ECCENTRICITY,INCLINATION,RA_OF_ASC_NODE,ARG_OF_PERICENTER,MEAN_ANOMALY,BSTAR,MEAN_MOTION_DOT,MEAN_MOTION_DDOT,TLE_LINE0,TLE_LINE1,TLE_LINE2,SEMIMAJOR_AXIS,PERIOD,APOGEE,PERIGEE,DECAYED
53439.0,STARLINK-4519,PAYLOAD,2024-04-03 05:03:12,15.08837535,0.0001576,53.219,30.9091,89.1469,270.9704,0.00010236,1.341e-05,0.0,0 STARLINK-4519,1 53439U 22097BD  24094.21056094  .00001341  00000-0  10236-3 0  9994,2 53439  53.2190  30.9091 0001576  89.1469 270.9704 15.08837535 91806,6917.888,95.438,540.843,538.663,0.0
53439.0,STARLINK-4519,PAYLOAD,2024-04-04 12:50:54,15.08854531,0.0001465,53.2185,24.9599,93.8949,266.221,0.0004897,7.517e-05,0.0,0 STARLINK-4519,1 53439U 22097BD  24095.53535503  .00007517  00000-0  48970-3 0  9994,2 53439  53.2185  24.9599 0001465  93.8949 266.2210 15.08854531 92006,6917.836,95.437,540.714,538.688,0.0
53439.0,STARLINK-4519,PAYLOAD,2024-04-04 22:23:13,15.08844657,0.0001448,53.2187,23.1762,92.7872,267.3286,0.00015654,2.205e-05,0.0,0 STARLINK-4519,1 53439U 22097BD  24095.93279679  .00002205  00000-0  15654-3 0  9999,2 53439  53.2187  23.1762 0001448  92.7872 267.3286 15.08844657 92558,6917.866,95.437,540.733,538.729,0.0
53439.0,STARLINK-4519,PAYLOAD,2024-04-05 04:44:46,15.08850272,0.0001465,53.2184,21.9866,93.64,266.476,0.00034043,5.136e-05,0.0,0 STARLINK-4519,1 53439U 22097BD  24096.19775508  .00005136  00000-0  34043-3 0  9999,2 53439  53.2184  21.9866 0001465  93.6400 266.4760 15.08850272 92100,6917.849,95.437,540.727,538.701,0.0
53439.0,STARLINK-4519,PAYLOAD,2024-04-06 01:24:46,15.08846707,0.0001511,53.2188,18.1195,98.6037,261.5127,0.00020171,2.924e-05,0.0,0 STARLINK-4519,1 53439U 22097BD  24097.05887441  .00002924  00000-0  20171-3 0  9994,2 53439  53.2188  18.1195 0001511  98.6037 261.5127 15.08846707 92235,6917.86,95.437,540.77,538.68,0.0
53439.0,STARLINK-4519,PAYLOAD,2024-04-06 18:54:01,15.08844152,0.0001458,53.2194,14.8487,98.0931,262.0227,0.00017874,2.558e-05,0.0,0 STARLINK-4519,1 53439U 22097BD  24097.78751496  .00002558  00000-0  17874-3 0  9993,2 53439  53.2194  14.8487 0001458  98.0931 262.0227 15.08844152 92347,6917.868,95.437,540.741,538.724,0.0
53439.0,STARLINK-4519,PAYLOAD,2024-04-06 22:04:47,15.08842967,0.0001344,53.2194,14.2573,97.9368,262.1777,0.00015935,2.249e-05,0.0,0 STARLINK-4519,1 53439U 22097BD  24097.91999587  .00002249  00000-0  15935-3 0  9996,2 53439  53.2194  14.2573 0001344  97.9368 262.1777 15.08842967 92852,6917.871,95.437,540.666,538.807,0.0
53439.0,STARLINK-4519,PAYLOAD,2024-04-07 10:47:52,15.08849805,0.0001245,53.2183,11.8775,87.0175,273.096,0.00016605,2.356e-05,0.0,0 STARLINK-4519,1 53439U 22097BD  24098.44991062  .00002356  00000-0  16605-3 0  9999,2 53439  53.2183  11.8775 0001245  87.0175 273.0960 15.08849805 92935,6917.85,95.437,540.577,538.854,0.0
53439.0,STARLINK-4519,PAYLOAD,2024-04-07 18:44:48,15.08840451,0.0001953,53.2187,10.3911,85.3561,274.7654,0.00015869,2.238e-05,0.0,0 STARLINK-4519,1 53439U 22097BD  24098.78111754  .00002238  00000-0  15869-3 0  9998,2 53439  53.2187  10.3911 0001953  85.3561 274.7654 15.08840451 92498,6917.879,95.438,541.095,538.393,0.0
53439.0,STARLINK-4519,PAYLOAD,2024-04-07 21:55:35,15.08828411,0.0001227,53.2185,9.7964,93.1477,266.9656,-7.3981e-05,-1.465e-05,0.0,0 STARLINK-4519,1 53439U 22097BD  24098.91360320 -.00001465  00000-0 -73981-4 0  9991,2 53439  53.2185   9.7964 0001227  93.1477 266.9656 15.08828411 93008,6917.916,95.438,540.63,538.932,0.0
53439.0,STARLINK-4519,PAYLOAD,2024-04-08 01:06:21,15.08831447,0.000135,53.2187,9.2047,104.2215,255.8928,-3.0144e-05,-7.67e-06,0.0,0 STARLINK-4519,1 53439U 22097BD  24099.04608241 -.00000767  00000-0 -30144-4 0  9991,2 53439  53.2187   9.2047 0001350 104.2215 255.8928 15.08831447 92537,6917.907,95.438,540.705,538.838,0.0
53439.0,STARLINK-4519,PAYLOAD,2024-04-08 10:38:39,15.0884239,0.0001197,53.2189,7.417,95.3843,264.7286,0.00010328,1.356e-05,0.0,0 STARLINK-4519,1 53439U 22097BD  24099.44351697  .00001356  00000-0  10328-3 0  9999,2 53439  53.2189   7.4170 0001197  95.3843 264.7286 15.08842390 92593,6917.873,95.437,540.566,538.91,0.0
53439.0,STARLINK-4519,PAYLOAD,2024-04-08 23:21:45,15.08838893,0.0001578,53.22,5.0423,106.8958,253.2207,0.00012756,1.743e-05,0.0,0 STARLINK-4519,1 53439U 22097BD  24099.97344133  .00001743  00000-0  12756-3 0  9991,2 53439  53.2200   5.0423 0001578 106.8958 253.2207 15.08838893 93163,6917.884,95.438,540.84,538.657,0.0
53439.0,STARLINK-4519,PAYLOAD,2024-04-09 10:29:26,15.08858714,0.0001596,53.2206,2.9558,81.1301,278.9872,-7.5246e-05,-1.486e-05,0.0,0 STARLINK-4519,1 53439U 22097BD  24100.43710975 -.00001486  00000-0 -75246-4 0  9996,2 53439  53.2206   2.9558 0001596  81.1301 278.9872 15.08858714 92740,6917.823,95.436,540.792,538.584,0.0
53439.0,STARLINK-4519,PAYLOAD,2024-04-09 16:50:59,15.08848684,0.000207,53.2198,1.7727,93.4877,266.6352,0.00015731,2.217e-05,0.0,0 STARLINK-4519,1 53439U 22097BD  24100.70207794  .00002217  00000-0  15731-3 0  9999,2 53439  53.2198   1.7727 0002070  93.4877 266.6352 15.08848684 92783,6917.854,95.437,541.151,538.287,0.0
53439.0,STARLINK-4519,PAYLOAD,2024-04-10 02:23:18,15.08838687,0.0001425,53.2194,359.9855,94.3694,265.7461,0.0001388,1.922e-05,0.0,0 STARLINK-4519,1 53439U 22097BD  24101.09952340  .00001922  00000-0  13880-3 0  9991,2 53439  53.2194 359.9855 0001425  94.3694 265.7461 15.08838687 92849,6917.884,95.438,540.735,538.764,0.0
53439.0,STARLINK-4519,PAYLOAD,2024-04-10 10:20:14,15.08849611,0.0001456,53.2196,358.4985,80.7501,279.3656,0.00026429,3.922e-05,0.0,0 STARLINK-4519,1 53439U 22097BD  24101.43071886  .00003922  00000-0  26429-3 0  9991,2 53439  53.2196 358.4985 0001456  80.7501 279.3656 15.08849611 92890,6917.851,95.437,540.723,538.709,0.0
53439.0,STARLINK-4519,PAYLOAD,2024-04-10 21:27:56,15.08833147,0.0001401,53.2195,356.4161,84.1861,275.9291,-4.4e-05,-9.88e-06,0.0,0 STARLINK-4519,1 53439U 22097BD  24101.89440538 -.00000988  00000-0 -44000-4 0  9992,2 53439  53.2195 356.4161 0001401  84.1861 275.9291 15.08833147 92962,6917.901,95.438,540.736,538.797,0.0
53439.0,STARLINK-4519,PAYLOAD,2024-04-10 23:03:19,15.0883217,0.0001113,53.2193,356.1191,80.5878,279.524,-4.9492e-05,-1.075e-05,0.0,0 STARLINK-4519,1 53439U 22097BD  24101.96064602 -.00001075  00000-0 -49492-4 0  9992,2 53439  53.2193 356.1191 0001113  80.5878 279.5240 15.08832170 93463,6917.904,95.438,540.539,538.999,0.0
53439.0,STARLINK-4519,PAYLOAD,2024-04-11 10:11:01,15.08841345,0.0001357,53.2173,354.0413,75.9348,284.1795,0.0002432,3.585e-05,0.0,0 STARLINK-4519,1 53439U 22097BD  24102.42432525  .00003585  00000-0  24320-3 0  9995,2 53439  53.2173 354.0413 0001357  75.9348 284.1795 15.08841345 93534,6917.876,95.437,540.68,538.803,0.0
53439.0,STARLINK-4519,PAYLOAD,2024-04-11 22:54:07,15.08840067,0.0001162,53.218,351.6588,100.319,259.7933,0.00023951,3.526e-05,0.0,0 STARLINK-4519,1 53439U 22097BD  24102.95424841  .00003526  00000-0  23951-3 0  9999,2 53439  53.2180 351.6588 0001162 100.3190 259.7933 15.08840067 93611,6917.88,95.438,540.549,538.941,0.0
53439.0,STARLINK-4519,PAYLOAD,2024-04-12 22:44:53,15.08852257,0.0001141,53.2163,347.1985,97.9281,262.1841,0.00048422,7.429e-05,0.0,0 STARLINK-4519,1 53439U 22097BD  24103.94784412  .00007429  00000-0  48422-3 0  9998,2 53439  53.2163 347.1985 0001141  97.9281 262.1841 15.08852257 93768,6917.843,95.437,540.497,538.919,0.0
53439.0,STARLINK-4519,PAYLOAD,2024-04-13 01:55:39,15.0885376,0.0001148,53.2165,346.6038,97.7074,262.4048,0.0004717,7.23e-05,0.0,0 STARLINK-4519,1 53439U 22097BD  24104.08032293  .00007230  00000-0  47170-3 0  9996,2 53439  53.2165 346.6038 0001148  97.7074 262.4048 15.08853760 93298,6917.838,95.437,540.497,538.909,0.0
53439.0,STARLINK-4519,PAYLOAD,2024-04-13 21:00:17,15.08843053,0.000132,53.2175,343.032,110.6049,249.5085,9.3263e-05,1.197e-05,0.0,0 STARLINK-4519,1 53439U 22097BD  24104.87520371  .00001197  00000-0  93263-4 0  9993,2 53439  53.2175 343.0320 0001320 110.6049 249.5085 15.08843053 93418,6917.871,95.437,540.649,538.823,0.0
53439.0,STARLINK-4519,PAYLOAD,2024-04-14 20:51:04,15.08838806,0.0001138,53.2172,338.5709,90.1466,269.9656,8.5368e-05,1.071e-05,0.0,0 STARLINK-4519,1 53439U 22097BD  24105.86880714  .00001071  00000-0  85368-4 0  9991,2 53439  53.2172 338.5709 0001138  90.1466 269.9656 15.08838806 93563,6917.884,95.438,540.536,538.962,0.0
53439.0,STARLINK-4519,PAYLOAD,2024-04-15 20:41:52,15.08837789,0.0001323,53.2175,334.1099,113.3839,246.7292,0.00010925,1.451e-05,0.0,0 STARLINK-4519,1 53439U 22097BD  24106.86240795  .00001451  00000-0  10925-3 0  9999,2 53439  53.2175 334.1099 0001323 113.3839 246.7292 15.08837789 94208,6917.887,95.438,540.667,538.837,0.0
53439.0,STARLINK-4519,PAYLOAD,2024-04-15 22:17:15,15.08838307,0.0001198,53.2175,333.8127,103.2417,256.8709,0.00010812,1.433e-05,0.0,0 STARLINK-4519,1 53439U 22097BD  24106.92864811  .00001433  00000-0  10812-3 0  9992,2 53439  53.2175 333.8127 0001198 103.2417 256.8709 15.08838307 93724,6917.886,95.438,540.579,538.922,0.0
53439.0,STARLINK-4519,PAYLOAD,2024-04-16 07:49:33,15.08856301,0.000104,53.2175,332.0288,88.6058,271.5053,0.0003418,5.158e-05,0.0,0 STARLINK-4519,1 53439U 22097BD  24107.32607793  .00005158  00000-0  34180-3 0  9993,2 53439  53.2175 332.0288 0001040  88.6058 271.5053 15.08856301 93782,6917.831,95.437,540.415,538.976,0.0
53439.0,STARLINK-4519,PAYLOAD,2024-04-16 20:32:38,15.08845036,0.000144,53.2186,329.6546,92.6218,267.4939,0.00012925,1.77e-05,0.0,0 STARLINK-4519,1 53439U 22097BD  24107.85600459  .00001770  00000-0  12925-3 0  9992,2 53439  53.2186 329.6546 0001440  92.6218 267.4939 15.08845036 93869,6917.865,95.437,540.726,538.734,0.0
53439.0,STARLINK-4519,PAYLOAD,2024-04-16 22:08:01,15.0885668,0.0001029,53.2167,329.3551,102.1313,257.9795,0.00029654,4.437e-05,0.0,0 STARLINK-4519,1 53439U 22097BD  24107.92223793  .00004437  00000-0  29654-3 0  9992,2 53439  53.2167 329.3551 0001029 102.1313 257.9795 15.08856680 94364,6917.829,95.436,540.406,538.983,0.0
